{"type": "FeatureCollection", "features": [ {"type": "Feature", "properties": {"norad_id": 33867, "name": "IRIDIUM 33 DEB", "group": "iridium-33-debris", "lat": -7.203850390300055, "lon": 167.5077502649098, "alt_km": 337.3315461348793, "timestamp": "2025-12-18T13:51:50.069945+00:00", "meta": {"OBJECT_NAME": "IRIDIUM 33 DEB", "OBJECT_ID": "1997-051AL", "EPOCH": "2025-12-17T23:22:59.337696", "MEAN_MOTION": 15.78004875, "ECCENTRICITY": 0.00136954, "INCLINATION": 86.3645, "RA_OF_ASC_NODE": 347.3655, "ARG_OF_PERICENTER": 92.6953, "MEAN_ANOMALY": 267.5889, "EPHEMERIS_TYPE": 0, "CLASSIFICATION_TYPE": "U", "NORAD_CAT_ID": 33867, "ELEMENT_SET_NO": 999, "REV_AT_EPOCH": 89593, "BSTAR": 0.0066341837, "MEAN_MOTION_DOT": 0.01271122, "MEAN_MOTION_DDOT": 0}, "tle": {"line1": "1 33867U 97051AL  25351.97429789  .01271122  00000+0  66342-2 0  9998", "line2": "2 33867  86.3645 347.3655 0013695  92.6953 267.5889 15.78004875895936"}}, "geometry": {"type": "Point", "coordinates": [167.5077502649098, -7.203850390300055]}}, {"type": "Feature", "properties": {"norad_id": 33870, "name": "IRIDIUM 33 DEB", "group": "iridium-33-debris", "lat": 84.78232390980845, "lon": -168.2118139194732, "alt_km": 725.1662562468164, "timestamp": "2025-12-18T13:51:50.069957+00:00", "meta": {"OBJECT_NAME": "IRIDIUM 33 DEB", "OBJECT_ID": "1997-051AP", "EPOCH": "2025-12-18T05:23:59.703648", "MEAN_MOTION": 14.45879643, "ECCENTRICITY": 0.00220517, "INCLINATION": 86.3746, "RA_OF_ASC_NODE": 55.9098, "ARG_OF_PERICENTER": 160.4911, "MEAN_ANOMALY": 258.9692, "EPHEMERIS_TYPE": 0, "CLASSIFICATION_TYPE": "U", "NORAD_CAT_ID": 33870, "ELEMENT_SET_NO": 999, "REV_AT_EPOCH": 88216, "BSTAR": 0.00057936504, "MEAN_MOTION_DOT": 2.083e-05, "MEAN_MOTION_DDOT": 0}, "tle": {"line1": "1 33870U 97051AP  25352.22499657  .00002083  00000+0  57937-3 0  9990", "line2": "2 33870  86.3746  55.9098 0022051 160.4911 258.9692 14.45879643882162"}}, "geometry": {"type": "Point", "coordinates": [-168.2118139194732, 84.78232390980845]}}, {"type": "Feature", "properties": {"norad_id": 33881, "name": "IRIDIUM 33 DEB", "group": "iridium-33-debris", "lat": -8.582153024870507, "lon": -75.24842425187097, "alt_km": 671.332689040014, "timestamp": "2025-12-18T13:51:50.069969+00:00", "meta": {"OBJECT_NAME": "IRIDIUM 33 DEB", "OBJECT_ID": "1997-051BA", "EPOCH": "2025-12-18T06:43:06.772800", "MEAN_MOTION": 14.56671928, "ECCENTRICITY": 0.00614563, "INCLINATION": 86.3861, "RA_OF_ASC_NODE": 104.3345, "ARG_OF_PERICENTER": 156.8183, "MEAN_ANOMALY": 271.0189, "EPHEMERIS_TYPE": 0, "CLASSIFICATION_TYPE": "U", "NORAD_CAT_ID": 33881, "ELEMENT_SET_NO": 999, "REV_AT_EPOCH": 87581, "BSTAR": 0.0016724136, "MEAN_MOTION_DOT": 7.682e-05, "MEAN_MOTION_DDOT": 0}, "tle": {"line1": "1 33881U 97051BA  25352.27993950  .00007682  00000+0  16724-2 0  9990", "line2": "2 33881  86.3861 104.3345 0061456 156.8183 271.0189 14.56671928875817"}}, "geometry": {"type": "Point", "coordinates": [-75.24842425187097, -8.582153024870507]}}, {"type": "Feature", "properties": {"norad_id": 33884, "name": "IRIDIUM 33 DEB", "group": "iridium-33-debris", "lat": -32.42152154950121, "lon": -170.5052528410303, "alt_km": 643.2036787332581, "timestamp": "2025-12-18T13:51:50.069981+00:00", "meta": {"OBJECT_NAME": "IRIDIUM 33 DEB", "OBJECT_ID": "1997-051BD", "EPOCH": "2025-12-18T01:49:15.051360", "MEAN_MOTION": 14.77532652, "ECCENTRICITY": 0.00092312, "INCLINATION": 86.3692, "RA_OF_ASC_NODE": 7.4099, "ARG_OF_PERICENTER": 303.1685, "MEAN_ANOMALY": 121.968, "EPHEMERIS_TYPE": 0, "CLASSIFICATION_TYPE": "U", "NORAD_CAT_ID": 33884, "ELEMENT_SET_NO": 999, "REV_AT_EPOCH": 88926, "BSTAR": 0.0011886124, "MEAN_MOTION_DOT": 8.512e-05, "MEAN_MOTION_DDOT": 0}, "tle": {"line1": "1 33884U 97051BD  25352.07586865  .00008512  00000+0  11886-2 0  9991", "line2": "2 33884  86.3692   7.4099 0009231 303.1685 121.9680 14.77532652889264"}}, "geometry": {"type": "Point", "coordinates": [-170.5052528410303, -32.42152154950121]}}, {"type": "Feature", "properties": {"norad_id": 33886, "name": "IRIDIUM 33 DEB", "group": "iridium-33-debris", "lat": -11.280250385047319, "lon": 64.04873694794084, "alt_km": 781.5724070649112, "timestamp": "2025-12-18T13:51:50.069993+00:00", "meta": {"OBJECT_NAME": "IRIDIUM 33 DEB", "OBJECT_ID": "1997-051BF", "EPOCH": "2025-12-18T05:51:24.712128", "MEAN_MOTION": 14.36058537, "ECCENTRICITY": 0.00127478, "INCLINATION": 86.3827, "RA_OF_ASC_NODE": 64.9121, "ARG_OF_PERICENTER": 221.7608, "MEAN_ANOMALY": 203.2449, "EPHEMERIS_TYPE": 0, "CLASSIFICATION_TYPE": "U", "NORAD_CAT_ID": 33886, "ELEMENT_SET_NO": 999, "REV_AT_EPOCH": 88131, "BSTAR": 0.00016091906, "MEAN_MOTION_DOT": 4.88e-06, "MEAN_MOTION_DDOT": 0}, "tle": {"line1": "1 33886U 97051BF  25352.24403602  .00000488  00000+0  16092-3 0  9998", "line2": "2 33886  86.3827  64.9121 0012747 221.7608 203.2449 14.36058537881311"}}, "geometry": {"type": "Point", "coordinates": [64.04873694794084, -11.280250385047319]}}, {"type": "Feature", "properties": {"norad_id": 33887, "name": "IRIDIUM 33 DEB", "group": "iridium-33-debris", "lat": -50.39969772313956, "lon": -3.6047677695255502, "alt_km": 775.6799848136043, "timestamp": "2025-12-18T13:51:50.070004+00:00", "meta": {"OBJECT_NAME": "IRIDIUM 33 DEB", "OBJECT_ID": "1997-051BG", "EPOCH": "2025-12-18T00:58:46.314048", "MEAN_MOTION": 14.37225774, "ECCENTRICITY": 0.00049614, "INCLINATION": 86.3041, "RA_OF_ASC_NODE": 1.1077, "ARG_OF_PERICENTER": 204.7523, "MEAN_ANOMALY": 208.8254, "EPHEMERIS_TYPE": 0, "CLASSIFICATION_TYPE": "U", "NORAD_CAT_ID": 33887, "ELEMENT_SET_NO": 999, "REV_AT_EPOCH": 88241, "BSTAR": 0.00012406727, "MEAN_MOTION_DOT": 3.89e-06, "MEAN_MOTION_DDOT": 0}, "tle": {"line1": "1 33887U 97051BG  25352.04081382  .00000389  00000+0  12407-3 0  9990", "line2": "2 33887  86.3041   1.1077 0004961 204.7523 208.8254 14.37225774882416"}}, "geometry": {"type": "Point", "coordinates": [-3.6047677695255502, -50.39969772313956]}}, {"type": "Feature", "properties": {"norad_id": 33953, "name": "IRIDIUM 33 DEB", "group": "iridium-33-debris", "lat": -5.8056982091304175, "lon": -128.38563531123776, "alt_km": 714.3089453534039, "timestamp": "2025-12-18T13:51:50.070015+00:00", "meta": {"OBJECT_NAME": "IRIDIUM 33 DEB", "OBJECT_ID": "1997-051BN", "EPOCH": "2025-12-18T05:01:59.483136", "MEAN_MOTION": 14.55376631, "ECCENTRICITY": 0.00180872, "INCLINATION": 86.3847, "RA_OF_ASC_NODE": 51.4057, "ARG_OF_PERICENTER": 86.1806, "MEAN_ANOMALY": 332.7488, "EPHEMERIS_TYPE": 0, "CLASSIFICATION_TYPE": "U", "NORAD_CAT_ID": 33953, "ELEMENT_SET_NO": 999, "REV_AT_EPOCH": 88383, "BSTAR": 0.00090494246, "MEAN_MOTION_DOT": 3.956e-05, "MEAN_MOTION_DDOT": 0}, "tle": {"line1": "1 33953U 97051BN  25352.20971624  .00003956  00000+0  90494-3 0  9994", "line2": "2 33953  86.3847  51.4057 0018087  86.1806 332.7488 14.55376631883832"}}, "geometry": {"type": "Point", "coordinates": [-128.38563531123776, -5.8056982091304175]}}, {"type": "Feature", "properties": {"norad_id": 33960, "name": "IRIDIUM 33 DEB", "group": "iridium-33-debris", "lat": -78.56793250084225, "lon": 125.66596264249739, "alt_km": 624.145536048778, "timestamp": "2025-12-18T13:51:50.070027+00:00", "meta": {"OBJECT_NAME": "IRIDIUM 33 DEB", "OBJECT_ID": "1997-051BV", "EPOCH": "2025-12-18T06:57:12.542400", "MEAN_MOTION": 14.854684, "ECCENTRICITY": 0.00074505, "INCLINATION": 86.2539, "RA_OF_ASC_NODE": 286.8965, "ARG_OF_PERICENTER": 53.039, "MEAN_ANOMALY": 107.3954, "EPHEMERIS_TYPE": 0, "CLASSIFICATION_TYPE": "U", "NORAD_CAT_ID": 33960, "ELEMENT_SET_NO": 999, "REV_AT_EPOCH": 88949, "BSTAR": 0.0027672748, "MEAN_MOTION_DOT": 0.00023957, "MEAN_MOTION_DDOT": 0}, "tle": {"line1": "1 33960U 97051BV  25352.28972850  .00023957  00000+0  27673-2 0  9993", "line2": "2 33960  86.2539 286.8965 0007450  53.0390 107.3954 14.85468400889493"}}, "geometry": {"type": "Point", "coordinates": [125.66596264249739, -78.56793250084225]}}, {"type": "Feature", "properties": {"norad_id": 33966, "name": "IRIDIUM 33 DEB", "group": "iridium-33-debris", "lat": -11.007998513885722, "lon": -135.77466527736573, "alt_km": 725.9854603501353, "timestamp": "2025-12-18T13:51:50.070038+00:00", "meta": {"OBJECT_NAME": "IRIDIUM 33 DEB", "OBJECT_ID": "1997-051CB", "EPOCH": "2025-12-18T05:02:06.942048", "MEAN_MOTION": 14.49615454, "ECCENTRICITY": 0.00080157, "INCLINATION": 86.3919, "RA_OF_ASC_NODE": 43.6799, "ARG_OF_PERICENTER": 170.7451, "MEAN_ANOMALY": 261.6394, "EPHEMERIS_TYPE": 0, "CLASSIFICATION_TYPE": "U", "NORAD_CAT_ID": 33966, "ELEMENT_SET_NO": 999, "REV_AT_EPOCH": 88521, "BSTAR": 0.00042341797, "MEAN_MOTION_DOT": 1.646e-05, "MEAN_MOTION_DDOT": 0}, "tle": {"line1": "1 33966U 97051CB  25352.20980257  .00001646  00000+0  42342-3 0  9993", "line2": "2 33966  86.3919  43.6799 0008015 170.7451 261.6394 14.49615454885210"}}, "geometry": {"type": "Point", "coordinates": [-135.77466527736573, -11.007998513885722]}}, {"type": "Feature", "properties": {"norad_id": 34071, "name": "IRIDIUM 33 DEB", "group": "iridium-33-debris", "lat": -74.2285593149618, "lon": -151.62857965954584, "alt_km": 741.4913030666312, "timestamp": "2025-12-18T13:51:50.070049+00:00", "meta": {"OBJECT_NAME": "IRIDIUM 33 DEB", "OBJECT_ID": "1997-051CE", "EPOCH": "2025-12-18T07:43:22.413216", "MEAN_MOTION": 14.4948889, "ECCENTRICITY": 0.00099568, "INCLINATION": 86.345, "RA_OF_ASC_NODE": 15.4021, "ARG_OF_PERICENTER": 92.446, "MEAN_ANOMALY": 267.7884, "EPHEMERIS_TYPE": 0, "CLASSIFICATION_TYPE": "U", "NORAD_CAT_ID": 34071, "ELEMENT_SET_NO": 999, "REV_AT_EPOCH": 88415, "BSTAR": 0.00048215715, "MEAN_MOTION_DOT": 1.867e-05, "MEAN_MOTION_DDOT": 0}, "tle": {"line1": "1 34071U 97051CE  25352.32178719  .00001867  00000+0  48216-3 0  9997", "line2": "2 34071  86.3450  15.4021 0009956  92.4460 267.7884 14.49488890884153"}}, "geometry": {"type": "Point", "coordinates": [-151.62857965954584, -74.2285593149618]}}]}